COSMOS 2419 (714)       
1 28915U 05050A   16293.67723530  .00000012  00000-0  00000-0 0  9992
2 28915  65.3819  73.9619 0014438 359.0206 246.1387  2.13105274 84209
COSMOS 2425 (716)       
1 29670U 06062A   16293.67262291 -.00000013  00000-0  10000-3 0  9993
2 29670  65.5763 312.9683 0020686 337.8391 319.5398  2.13105061 76400
COSMOS 2426 (717)       
1 29671U 06062B   16293.57673054 -.00000013  00000-0  10000-3 0  9996
2 29671  65.5937 313.0566 0018216 173.5974 270.2253  2.13103088 76415
COSMOS 2424 (715)       
1 29672U 06062C   16294.64588123  .00000000  00000-0  10000-3 0  9993
2 29672  65.5777 312.9463 0017414 173.4756 186.5929  2.13100939 76431
COSMOS 2433 (720)       
1 32275U 07052A   16294.04701366  .00000013  00000-0  10000-3 0  9990
2 32275  65.3971  73.7240 0001592 199.9940 216.7235  2.13104928 69936
COSMOS 2432 (719)       
1 32276U 07052B   16294.04736161  .00000013  00000-0  10000-3 0  9992
2 32276  65.4085  73.7916 0009769 344.5973  25.9172  2.13104184 69936
COSMOS 2434 (721)       
1 32393U 07065A   16294.58433384  .00000012  00000-0  10000-3 0  9995
2 32393  65.1942 312.2008 0002761 158.1926 201.8638  2.13101338 68658
COSMOS 2436 (723)       
1 32395U 07065C   16293.65933889 -.00000013  00000-0  10000-3 0  9991
2 32395  65.2074 312.2771 0015976 344.5217 117.9401  2.13102997 68567
COSMOS 2443 (725)       
1 33379U 08046B   16293.94128115  .00000012  00000-0  10000-3 0  9992
2 33379  65.3257  73.1318 0017295 180.2664  58.8076  2.13101098 62792
COSMOS 2456 (730)       
1 36111U 09070A   16293.67665322  .00000015  00000-0  00000-0 0  9992
2 36111  64.1793 191.8028 0004541 314.5186 239.3184  2.13103059 53298
COSMOS 2457 (733)       
1 36112U 09070B   16294.21922506  .00000008  00000-0  00000+0 0  9995
2 36112  64.1614 191.7090 0006489 168.4927 211.2679  2.13101789 53310
COSMOS 2458 (734)       
1 36113U 09070C   16294.02280676  .00000011  00000-0  10000-3 0  9999
2 36113  64.1666 191.7222 0001336   6.2661 270.4474  2.13101950 53304
COSMOS 2459 (731)       
1 36400U 10007A   16293.73942150  .00000011  00000-0  10000-3 0  9999
2 36400  65.3048  72.8693 0026432 356.9063  48.0928  2.13102274 51655
COSMOS 2461 (735)       
1 36401U 10007B   16293.74906650  .00000011  00000-0  10000-3 0  9996
2 36401  65.2984  72.8488 0008039  83.1401 239.8617  2.13102336 51647
COSMOS 2460 (732)       
1 36402U 10007C   16293.68541086  .00000010  00000-0  10000-3 0  9997
2 36402  65.2876  72.8262 0002242 117.7678 198.0429  2.13101955 51641
COSMOS 2465 (737)       
1 37138U 10041B   16294.13351799 -.00000014  00000-0  00000+0 0  9993
2 37138  64.7940 312.3261 0036473 175.8141 241.5939  2.13103504 47735
COSMOS 2464 (736)       
1 37139U 10041C   16294.28754166  .00000013  00000-0  10000-3 0  9998
2 37139  64.8006 312.3175 0021189   5.8720 354.1980  2.13101557 47741
COSMOS 2471 (701K)      
1 37372U 11009A   16293.87575166  .00000011  00000-0  00000-0 0  9991
2 37372  65.2863  72.7694 0007324 222.1031  12.7336  2.13102860 43929
COSMOS 2474 (742)       
1 37829U 11055A   16294.12066872  .00000010  00000-0  00000+0 0  9995
2 37829  64.5034 192.2524 0008258 250.8862 144.4397  2.13102050 39303
COSMOS 2476 (744)       
1 37867U 11064A   16294.13846278  .00000009  00000-0  00000+0 0  9992
2 37867  64.4821 192.3295 0017272 245.3232 209.5265  2.13102084 38651
COSMOS 2477 (745)       
1 37868U 11064B   16294.25032315 -.00000046  00000-0  10000-3 0  9992
2 37868  64.4913 192.3694 0014500 246.1302 113.7904  2.13104292 38610
COSMOS 2475 (743)       
1 37869U 11064C   16293.68756409  .00000015  00000-0  00000-0 0  9997
2 37869  64.4977 192.3749 0020486 274.0876 330.3486  2.13102334 38604
COSMOS 2485 (747)       
1 39155U 13019A   16293.66028223  .00000016  00000-0  00000-0 0  9994
2 39155  64.6531 192.3231 0017617 240.1697 252.9436  2.13102172 27113
COSMOS 2492 (754)       
1 39620U 14012A   16294.07277838  .00000011  00000-0  10000-3 0  9998
2 39620  65.1776  72.7848 0013103 336.6998 146.4310  2.13103372 20072
COSMOS 2500 (755)       
1 40001U 14032A   16293.64234108  .00000010  00000-0  00000-0 0  9995
2 40001  65.1174  72.8136 0006601 185.5164 190.9370  2.13102950 18282
COSMOS 2501 (702K)      
1 40315U 14075A   16294.31346821 -.00000017  00000-0  00000+0 0  9998
2 40315  64.5659 313.7357 0019608 234.4138  97.6133  2.13101721 14695
COSMOS 2514 (751)       
1 41330U 16008A   16293.53806683  .00000009  00000-0  00000-0 0  9995
2 41330  64.9183  73.0218 0009281 201.2862 274.5267  2.13103518  5446
COSMOS 2516 (753)       
1 41554U 16032A   16294.09234794 -.00000016  00000-0  00000+0 0  9998
2 41554  64.7470 313.4490 0014184 226.6992 208.3554  2.13101682  3067
